{"type": "FeatureCollection", "features": [ {"type": "Feature", "properties": {"norad_id": 37550, "name": "IRIDIUM 33 DEB", "group": "iridium-33-debris", "lat": -65.07651627101997, "lon": 10.626787321015506, "alt_km": 680.1330465262026, "timestamp": "2025-12-24T22:42:22.419049+00:00", "meta": {"OBJECT_NAME": "IRIDIUM 33 DEB", "OBJECT_ID": "1997-051XK", "EPOCH": "2025-12-23T19:10:49.593504", "MEAN_MOTION": 14.67349531, "ECCENTRICITY": 0.00055645, "INCLINATION": 86.3769, "RA_OF_ASC_NODE": 18.9721, "ARG_OF_PERICENTER": 86.6044, "MEAN_ANOMALY": 273.5807, "EPHEMERIS_TYPE": 0, "CLASSIFICATION_TYPE": "U", "NORAD_CAT_ID": 37550, "ELEMENT_SET_NO": 999, "REV_AT_EPOCH": 86495, "BSTAR": 0.0012621421, "MEAN_MOTION_DOT": 7.151e-05, "MEAN_MOTION_DDOT": 0}, "tle": {"line1": "1 37550U 97051XK  25357.79918511  .00007151  00000+0  12621-2 0  9992", "line2": "2 37550  86.3769  18.9721 0005564  86.6044 273.5807 14.67349531864954"}}, "geometry": {"type": "Point", "coordinates": [10.626787321015506, -65.07651627101997]}}, {"type": "Feature", "properties": {"norad_id": 37562, "name": "IRIDIUM 33 DEB", "group": "iridium-33-debris", "lat": 30.882216377121267, "lon": 40.451476199041785, "alt_km": 687.9743623995473, "timestamp": "2025-12-24T22:42:22.419059+00:00", "meta": {"OBJECT_NAME": "IRIDIUM 33 DEB", "OBJECT_ID": "1997-051XX", "EPOCH": "2025-12-23T20:59:31.951104", "MEAN_MOTION": 14.56567158, "ECCENTRICITY": 0.0026368, "INCLINATION": 86.3729, "RA_OF_ASC_NODE": 38.7447, "ARG_OF_PERICENTER": 72.8673, "MEAN_ANOMALY": 103.8436, "EPHEMERIS_TYPE": 0, "CLASSIFICATION_TYPE": "U", "NORAD_CAT_ID": 37562, "ELEMENT_SET_NO": 999, "REV_AT_EPOCH": 86490, "BSTAR": 0.001046, "MEAN_MOTION_DOT": 4.7e-05, "MEAN_MOTION_DDOT": 0}, "tle": {"line1": "1 37562U 97051XX  25357.87467536  .00004700  00000+0  10460-2 0  9996", "line2": "2 37562  86.3729  38.7447 0026368  72.8673 103.8436 14.56567158864901"}}, "geometry": {"type": "Point", "coordinates": [40.451476199041785, 30.882216377121267]}}, {"type": "Feature", "properties": {"norad_id": 37565, "name": "IRIDIUM 33 DEB", "group": "iridium-33-debris", "lat": -46.928815822913485, "lon": 0.34323404019666853, "alt_km": 728.2064779527682, "timestamp": "2025-12-24T22:42:22.419070+00:00", "meta": {"OBJECT_NAME": "IRIDIUM 33 DEB", "OBJECT_ID": "1997-051YA", "EPOCH": "2025-12-22T08:03:11.421504", "MEAN_MOTION": 14.51554431, "ECCENTRICITY": 0.00147764, "INCLINATION": 86.3487, "RA_OF_ASC_NODE": 5.397, "ARG_OF_PERICENTER": 56.1153, "MEAN_ANOMALY": 304.1456, "EPHEMERIS_TYPE": 0, "CLASSIFICATION_TYPE": "U", "NORAD_CAT_ID": 37565, "ELEMENT_SET_NO": 999, "REV_AT_EPOCH": 65976, "BSTAR": 0.00051713633, "MEAN_MOTION_DOT": 2.092e-05, "MEAN_MOTION_DDOT": 0}, "tle": {"line1": "1 37565U 97051YA  25356.33554886  .00002092  00000+0  51714-3 0  9994", "line2": "2 37565  86.3487   5.3970 0014776  56.1153 304.1456 14.51554431659763"}}, "geometry": {"type": "Point", "coordinates": [0.34323404019666853, -46.928815822913485]}}, {"type": "Feature", "properties": {"norad_id": 38017, "name": "IRIDIUM 33 DEB", "group": "iridium-33-debris", "lat": -61.87199073213205, "lon": 154.04675759422386, "alt_km": 771.2161731106098, "timestamp": "2025-12-24T22:42:22.419080+00:00", "meta": {"OBJECT_NAME": "IRIDIUM 33 DEB", "OBJECT_ID": "1997-051YD", "EPOCH": "2025-12-21T17:06:48.866976", "MEAN_MOTION": 14.4927867, "ECCENTRICITY": 0.00916411, "INCLINATION": 86.3414, "RA_OF_ASC_NODE": 162.3271, "ARG_OF_PERICENTER": 73.0367, "MEAN_ANOMALY": 288.0856, "EPHEMERIS_TYPE": 0, "CLASSIFICATION_TYPE": "U", "NORAD_CAT_ID": 38017, "ELEMENT_SET_NO": 999, "REV_AT_EPOCH": 61532, "BSTAR": 0.0034116417, "MEAN_MOTION_DOT": 0.00013762, "MEAN_MOTION_DDOT": 0}, "tle": {"line1": "1 38017U 97051YD  25355.71306559  .00013762  00000+0  34116-2 0  9992", "line2": "2 38017  86.3414 162.3271 0091641  73.0367 288.0856 14.49278670615328"}}, "geometry": {"type": "Point", "coordinates": [154.04675759422386, -61.87199073213205]}}, {"type": "Feature", "properties": {"norad_id": 38022, "name": "IRIDIUM 33 DEB", "group": "iridium-33-debris", "lat": 84.5629627807104, "lon": 147.8063715132227, "alt_km": 742.5793336379074, "timestamp": "2025-12-24T22:42:22.419090+00:00", "meta": {"OBJECT_NAME": "IRIDIUM 33 DEB", "OBJECT_ID": "1997-051YJ", "EPOCH": "2025-12-23T07:57:08.773056", "MEAN_MOTION": 14.41313849, "ECCENTRICITY": 0.00453843, "INCLINATION": 86.2683, "RA_OF_ASC_NODE": 11.8042, "ARG_OF_PERICENTER": 16.2864, "MEAN_ANOMALY": 343.9781, "EPHEMERIS_TYPE": 0, "CLASSIFICATION_TYPE": "U", "NORAD_CAT_ID": 38022, "ELEMENT_SET_NO": 999, "REV_AT_EPOCH": 69346, "BSTAR": 0.0010847612, "MEAN_MOTION_DOT": 3.57e-05, "MEAN_MOTION_DDOT": 0}, "tle": {"line1": "1 38022U 97051YJ  25357.33135154  .00003570  00000+0  10848-2 0  9991", "line2": "2 38022  86.2683  11.8042 0045384  16.2864 343.9781 14.41313849693468"}}, "geometry": {"type": "Point", "coordinates": [147.8063715132227, 84.5629627807104]}}, {"type": "Feature", "properties": {"norad_id": 38028, "name": "IRIDIUM 33 DEB", "group": "iridium-33-debris", "lat": 85.76832435731829, "lon": 114.66914406025985, "alt_km": 709.26875097434, "timestamp": "2025-12-24T22:42:22.419100+00:00", "meta": {"OBJECT_NAME": "IRIDIUM 33 DEB", "OBJECT_ID": "1997-051YQ", "EPOCH": "2025-12-19T17:44:22.316352", "MEAN_MOTION": 14.46188799, "ECCENTRICITY": 0.0030512, "INCLINATION": 86.3252, "RA_OF_ASC_NODE": 357.2262, "ARG_OF_PERICENTER": 99.065, "MEAN_ANOMALY": 261.4007, "EPHEMERIS_TYPE": 0, "CLASSIFICATION_TYPE": "U", "NORAD_CAT_ID": 38028, "ELEMENT_SET_NO": 999, "REV_AT_EPOCH": 65596, "BSTAR": 0.00016660929, "MEAN_MOTION_DOT": 6.2e-06, "MEAN_MOTION_DDOT": 0}, "tle": {"line1": "1 38028U 97051YQ  25353.73914718  .00000620  00000+0  16661-3 0  9991", "line2": "2 38028  86.3252 357.2262 0030512  99.0650 261.4007 14.46188799655964"}}, "geometry": {"type": "Point", "coordinates": [114.66914406025985, 85.76832435731829]}}, {"type": "Feature", "properties": {"norad_id": 38228, "name": "IRIDIUM 33 DEB", "group": "iridium-33-debris", "lat": -82.20356638193694, "lon": 15.0223086905765, "alt_km": 836.072844456522, "timestamp": "2025-12-24T22:42:22.419111+00:00", "meta": {"OBJECT_NAME": "IRIDIUM 33 DEB", "OBJECT_ID": "1997-051ZC", "EPOCH": "2025-12-20T22:20:09.818016", "MEAN_MOTION": 14.2727844, "ECCENTRICITY": 0.0065198, "INCLINATION": 86.2935, "RA_OF_ASC_NODE": 44.9869, "ARG_OF_PERICENTER": 163.0896, "MEAN_ANOMALY": 14.0405, "EPHEMERIS_TYPE": 0, "CLASSIFICATION_TYPE": "U", "NORAD_CAT_ID": 38228, "ELEMENT_SET_NO": 999, "REV_AT_EPOCH": 84898, "BSTAR": 0.00020665, "MEAN_MOTION_DOT": 5.36e-06, "MEAN_MOTION_DDOT": 0}, "tle": {"line1": "1 38228U 97051ZC  25354.93066919  .00000536  00000+0  20665-3 0  9992", "line2": "2 38228  86.2935  44.9869 0065198 163.0896  14.0405 14.27278440848980"}}, "geometry": {"type": "Point", "coordinates": [15.0223086905765, -82.20356638193694]}}, {"type": "Feature", "properties": {"norad_id": 38241, "name": "IRIDIUM 33 DEB", "group": "iridium-33-debris", "lat": -29.951651399552695, "lon": -16.910290778214428, "alt_km": 714.7023889239526, "timestamp": "2025-12-24T22:42:22.419121+00:00", "meta": {"OBJECT_NAME": "IRIDIUM 33 DEB", "OBJECT_ID": "1997-051ZR", "EPOCH": "2025-12-24T06:20:15.708480", "MEAN_MOTION": 14.54936495, "ECCENTRICITY": 0.00049857, "INCLINATION": 86.3237, "RA_OF_ASC_NODE": 345.5136, "ARG_OF_PERICENTER": 47.7465, "MEAN_ANOMALY": 312.4165, "EPHEMERIS_TYPE": 0, "CLASSIFICATION_TYPE": "U", "NORAD_CAT_ID": 38241, "ELEMENT_SET_NO": 999, "REV_AT_EPOCH": 60368, "BSTAR": 0.00082076089, "MEAN_MOTION_DOT": 3.549e-05, "MEAN_MOTION_DDOT": 0}, "tle": {"line1": "1 38241U 97051ZR  25358.26407070  .00003549  00000+0  82076-3 0  9995", "line2": "2 38241  86.3237 345.5136 0004985  47.7465 312.4165 14.54936495603680"}}, "geometry": {"type": "Point", "coordinates": [-16.910290778214428, -29.951651399552695]}}, {"type": "Feature", "properties": {"norad_id": 38474, "name": "IRIDIUM 33 DEB", "group": "iridium-33-debris", "lat": -80.15267709701445, "lon": -16.877760186769773, "alt_km": 743.2184520493574, "timestamp": "2025-12-24T22:42:22.419132+00:00", "meta": {"OBJECT_NAME": "IRIDIUM 33 DEB", "OBJECT_ID": "1997-051AAB", "EPOCH": "2025-12-21T07:20:31.212384", "MEAN_MOTION": 14.50718538, "ECCENTRICITY": 0.00276153, "INCLINATION": 86.3426, "RA_OF_ASC_NODE": 6.3307, "ARG_OF_PERICENTER": 61.1056, "MEAN_ANOMALY": 299.2914, "EPHEMERIS_TYPE": 0, "CLASSIFICATION_TYPE": "U", "NORAD_CAT_ID": 38474, "ELEMENT_SET_NO": 999, "REV_AT_EPOCH": 65442, "BSTAR": 0.00039085525, "MEAN_MOTION_DOT": 1.564e-05, "MEAN_MOTION_DDOT": 0}, "tle": {"line1": "1 38474U 97051AAB 25355.30591681  .00001564  00000+0  39086-3 0  9995", "line2": "2 38474  86.3426   6.3307 0027615  61.1056 299.2914 14.50718538654425"}}, "geometry": {"type": "Point", "coordinates": [-16.877760186769773, -80.15267709701445]}}, {"type": "Feature", "properties": {"norad_id": 39777, "name": "IRIDIUM 33 DEB", "group": "iridium-33-debris", "lat": -43.5591952492763, "lon": -7.029210700394494, "alt_km": 701.441548694248, "timestamp": "2025-12-24T22:42:22.419146+00:00", "meta": {"OBJECT_NAME": "IRIDIUM 33 DEB", "OBJECT_ID": "1997-051AAJ", "EPOCH": "2025-12-23T11:03:57.726720", "MEAN_MOTION": 14.56662937, "ECCENTRICITY": 0.00604969, "INCLINATION": 85.9633, "RA_OF_ASC_NODE": 169.8413, "ARG_OF_PERICENTER": 150.614, "MEAN_ANOMALY": 209.8492, "EPHEMERIS_TYPE": 0, "CLASSIFICATION_TYPE": "U", "NORAD_CAT_ID": 39777, "ELEMENT_SET_NO": 999, "REV_AT_EPOCH": 60341, "BSTAR": 0.0027053556, "MEAN_MOTION_DOT": 0.00012409, "MEAN_MOTION_DDOT": 0}, "tle": {"line1": "1 39777U 97051AAJ 25357.46108480  .00012409  00000+0  27054-2 0  9993", "line2": "2 39777  85.9633 169.8413 0060496 150.6140 209.8492 14.56662937603410"}}, "geometry": {"type": "Point", "coordinates": [-7.029210700394494, -43.5591952492763]}}]}